NORAD_CAT_ID,OBJECT_NAME,OBJECT_TYPE,EPOCH,MEAN_MOTION,ECCENTRICITY,INCLINATION,RA_OF_ASC_NODE,ARG_OF_PERICENTER,MEAN_ANOMALY,BSTAR,MEAN_MOTION_DOT,MEAN_MOTION_DDOT,TLE_LINE0,TLE_LINE1,TLE_LINE2,SEMIMAJOR_AXIS,PERIOD,APOGEE,PERIGEE,DECAYED
50839.0,STARLINK-3320,PAYLOAD,2023-05-31 22:32:05,15.08829743,0.0001053,53.2178,45.5318,98.1901,261.9211,7.9801e-05,9.82e-06,0.0,0 STARLINK-3320,1 50839U 22001AN  23151.93895813  .00000982  00000-0  79801-4 0  9996,2 50839  53.2178  45.5318 0001053  98.1901 261.9211 15.08829743 77368,6917.912,95.438,540.505,539.048,0.0
50839.0,STARLINK-3320,PAYLOAD,2023-06-01 00:07:28,15.08832328,0.0001076,53.2178,45.2344,99.8113,260.3001,8.8594e-05,1.122e-05,0.0,0 STARLINK-3320,1 50839U 22001AN  23152.00519668  .00001122  00000-0  88594-4 0  9992,2 50839  53.2178  45.2344 0001076  99.8113 260.3001 15.08832328 77376,6917.904,95.438,540.513,539.024,0.0
50839.0,STARLINK-3320,PAYLOAD,2023-06-01 19:12:06,15.08842122,0.0001037,53.2182,41.6658,94.441,265.6701,2.9087e-05,1.75e-06,0.0,0 STARLINK-3320,1 50839U 22001AN  23152.80007494  .00000175  00000-0  29087-4 0  9998,2 50839  53.2182  41.6658 0001037  94.4410 265.6701 15.08842122 78770,6917.874,95.437,540.456,539.022,0.0
50839.0,STARLINK-3320,PAYLOAD,2023-06-01 22:22:52,15.08845442,0.0001033,53.2177,41.071,99.6757,260.4352,4.5057e-05,4.29e-06,0.0,0 STARLINK-3320,1 50839U 22001AN  23152.93255199  .00000429  00000-0  45057-4 0  9996,2 50839  53.2177  41.0710 0001033  99.6757 260.4352 15.08845442 77518,6917.864,95.437,540.443,539.014,0.0
50839.0,STARLINK-3320,PAYLOAD,2023-06-02 01:33:38,15.08848041,0.0001082,53.2179,40.476,98.971,261.1404,8.3628e-05,1.044e-05,0.0,0 STARLINK-3320,1 50839U 22001AN  23153.06502890  .00001044  00000-0  83628-4 0  9994,2 50839  53.2179  40.4760 0001082  98.9710 261.1404 15.08848041 78811,6917.856,95.437,540.469,538.972,0.0
50839.0,STARLINK-3320,PAYLOAD,2023-06-02 17:27:30,15.08829106,0.0001093,53.2172,37.5043,94.3123,265.7994,0.0001095,1.455e-05,0.0,0 STARLINK-3320,1 50839U 22001AN  23153.72744052  .00001455  00000-0  10950-3 0  9998,2 50839  53.2172  37.5043 0001093  94.3123 265.7994 15.08829106 78911,6917.914,95.438,540.535,539.023,0.0
50839.0,STARLINK-3320,PAYLOAD,2023-06-02 22:13:40,15.08838086,0.0001105,53.2184,36.61,83.354,276.7578,5.4515e-05,5.8e-06,0.0,0 STARLINK-3320,1 50839U 22001AN  23153.92615811  .00000580  00000-0  54515-4 0  9994,2 50839  53.2184  36.6100 0001105  83.3540 276.7578 15.08838086 77661,6917.886,95.438,540.516,538.987,0.0
50839.0,STARLINK-3320,PAYLOAD,2023-06-03 01:24:26,15.0884055,0.0001052,53.2179,36.0163,95.1775,264.9338,9.7428e-05,1.263e-05,0.0,0 STARLINK-3320,1 50839U 22001AN  23154.05863443  .00001263  00000-0  97428-4 0  9994,2 50839  53.2179  36.0163 0001052  95.1775 264.9338 15.08840550 78966,6917.879,95.438,540.471,539.016,0.0
50839.0,STARLINK-3320,PAYLOAD,2023-06-03 22:04:27,15.08840893,0.0001064,53.2182,32.1491,102.5066,257.6046,-2.7466e-05,-7.25e-06,0.0,0 STARLINK-3320,1 50839U 22001AN  23154.91975840 -.00000725  00000-0 -27466-4 0  9993,2 50839  53.2182  32.1491 0001064 102.5066 257.6046 15.08840893 77818,6917.878,95.437,540.479,539.007,0.0
50839.0,STARLINK-3320,PAYLOAD,2023-06-04 10:47:33,15.08799692,0.0001297,53.2178,29.7703,110.7355,249.3776,0.00055908,8.611e-05,0.0,0 STARLINK-3320,1 50839U 22001AN  23155.44968984  .00008611  00000-0  55908-3 0  9994,2 50839  53.2178  29.7703 0001297 110.7355 249.3776 15.08799692 77897,6918.004,95.44,540.766,538.971,0.0
50839.0,STARLINK-3320,PAYLOAD,2023-06-04 17:09:04,15.08838202,0.0001166,53.2179,28.5809,98.0214,262.0911,2.519e-05,1.13e-06,0.0,0 STARLINK-3320,1 50839U 22001AN  23155.71463864  .00000113  00000-0  25190-4 0  9991,2 50839  53.2179  28.5809 0001166  98.0214 262.0911 15.08838202 79211,6917.886,95.438,540.558,538.944,0.0
50839.0,STARLINK-3320,PAYLOAD,2023-06-04 21:55:13,15.08843139,0.0001089,53.218,27.689,98.4286,261.6829,6.7595e-05,7.88e-06,0.0,0 STARLINK-3320,1 50839U 22001AN  23155.91335407  .00000788  00000-0  67595-4 0  9997,2 50839  53.2180  27.6890 0001089  98.4286 261.6829 15.08843139 77968,6917.871,95.437,540.489,538.982,0.0
50839.0,STARLINK-3320,PAYLOAD,2023-06-05 01:05:59,15.08844201,0.0001146,53.218,27.0936,96.2405,263.8717,0.00010945,1.455e-05,0.0,0 STARLINK-3320,1 50839U 22001AN  23156.04583186  .00001455  00000-0  10945-3 0  9999,2 50839  53.2180  27.0936 0001146  96.2405 263.8717 15.08844201 79262,6917.868,95.437,540.525,538.94,0.0
50839.0,STARLINK-3320,PAYLOAD,2023-06-05 10:38:18,15.08839897,0.0001062,53.2177,25.3096,106.2719,253.839,5.8206e-05,6.39e-06,0.0,0 STARLINK-3320,1 50839U 22001AN  23156.44327505  .00000639  00000-0  58206-4 0  9990,2 50839  53.2177  25.3096 0001062 106.2719 253.8390 15.08839897 78049,6917.881,95.438,540.48,539.011,0.0
50839.0,STARLINK-3320,PAYLOAD,2023-06-05 16:59:51,15.0884109,0.0001142,53.2178,24.1203,94.1068,266.0054,7.7517e-06,-1.64e-06,0.0,0 STARLINK-3320,1 50839U 22001AN  23156.70823701 -.00000164  00000-0  77517-5 0  9999,2 50839  53.2178  24.1203 0001142  94.1068 266.0054 15.08841090 79365,6917.877,95.437,540.532,538.952,0.0
50839.0,STARLINK-3320,PAYLOAD,2023-06-05 18:35:14,15.08841889,0.0001093,53.218,23.8231,92.5076,267.6041,1.8284e-05,3e-08,0.0,0 STARLINK-3320,1 50839U 22001AN  23156.77447612  .00000003  00000-0  18284-4 0  9995,2 50839  53.2180  23.8231 0001093  92.5076 267.6041 15.08841889 78099,6917.875,95.437,540.496,538.983,0.0
50839.0,STARLINK-3320,PAYLOAD,2023-06-06 10:29:06,15.08839291,0.0001062,53.2179,20.8503,105.1444,254.9666,3.5936e-05,2.84e-06,0.0,0 STARLINK-3320,1 50839U 22001AN  23157.43687602  .00000284  00000-0  35936-4 0  9998,2 50839  53.2179  20.8503 0001062 105.1444 254.9666 15.08839291 78199,6917.883,95.438,540.482,539.013,0.0
50839.0,STARLINK-3320,PAYLOAD,2023-06-06 18:26:02,15.08836873,8.35e-05,53.2187,19.3645,100.6669,259.4417,8.1768e-07,-2.75e-06,0.0,0 STARLINK-3320,1 50839U 22001AN  23157.76807914 -.00000275  00000-0  81768-6 0  9991,2 50839  53.2187  19.3645 0000835 100.6669 259.4417 15.08836873 78247,6917.89,95.438,540.333,539.177,0.0
50839.0,STARLINK-3320,PAYLOAD,2023-06-07 00:47:34,15.08845269,9.85e-05,53.2181,18.1736,97.3766,262.7338,2.397e-05,9.4e-07,0.0,0 STARLINK-3320,1 50839U 22001AN  23158.03303308  .00000094  00000-0  23970-4 0  9997,2 50839  53.2181  18.1736 0000985  97.3766 262.7338 15.08845269 79569,6917.864,95.437,540.411,539.048,0.0
50839.0,STARLINK-3320,PAYLOAD,2023-06-07 10:19:53,15.08833435,0.0001009,53.2178,16.3889,108.5373,251.5729,-1.9126e-05,-5.92e-06,0.0,0 STARLINK-3320,1 50839U 22001AN  23158.43048133 -.00000592  00000-0 -19126-4 0  9996,2 50839  53.2178  16.3889 0001009 108.5373 251.5729 15.08833435 79620,6917.9,95.438,540.463,539.067,0.0
50839.0,STARLINK-3320,PAYLOAD,2023-06-07 21:27:35,15.08834466,7.91e-05,53.2183,14.3096,94.815,265.2932,-5.4511e-06,-3.74e-06,0.0,0 STARLINK-3320,1 50839U 22001AN  23158.89416290 -.00000374  00000-0 -54511-5 0  9995,2 50839  53.2183  14.3096 0000791  94.8150 265.2932 15.08834466 78410,6917.897,95.438,540.31,539.215,0.0
50839.0,STARLINK-3320,PAYLOAD,2023-06-08 00:38:21,15.08837933,8.52e-05,53.218,13.7139,96.3364,263.7726,2.984e-05,1.87e-06,0.0,0 STARLINK-3320,1 50839U 22001AN  23159.02663984  .00000187  00000-0  29840-4 0  9991,2 50839  53.2180  13.7139 0000852  96.3364 263.7726 15.08837933 78438,6917.887,95.438,540.341,539.162,0.0
50839.0,STARLINK-3320,PAYLOAD,2023-06-09 06:50:41,15.08839511,6.84e-05,53.2164,8.062,81.6091,278.4979,2.8953e-05,1.73e-06,0.0,0 STARLINK-3320,1 50839U 22001AN  23160.28520097  .00000173  00000-0  28953-4 0  9997,2 50839  53.2164   8.0620 0000684  81.6091 278.4979 15.08839511 79909,6917.882,95.438,540.22,539.274,0.0
50839.0,STARLINK-3320,PAYLOAD,2023-06-09 16:23:00,15.08832417,7.82e-05,53.2187,6.2788,98.688,261.42,5.6392e-05,6.1e-06,0.0,0 STARLINK-3320,1 50839U 22001AN  23160.68264520  .00000610  00000-0  56392-4 0  9991,2 50839  53.2187   6.2788 0000782  98.6880 261.4200 15.08832417 78683,6917.904,95.438,540.31,539.228,0.0
50839.0,STARLINK-3320,PAYLOAD,2023-06-10 13:03:01,15.08835816,8.66e-05,53.218,2.4138,88.9241,271.185,4.3843e-05,4.1e-06,0.0,0 STARLINK-3320,1 50839U 22001AN  23161.54376649  .00000410  00000-0  43843-4 0  9998,2 50839  53.2180   2.4138 0000866  88.9241 271.1850 15.08835816 78819,6917.893,95.438,540.357,539.159,0.0
50839.0,STARLINK-3320,PAYLOAD,2023-06-10 14:38:24,15.08840895,8.51e-05,53.2179,2.1164,89.9368,270.1722,-1.458e-05,-5.2e-06,0.0,0 STARLINK-3320,1 50839U 22001AN  23161.61000562 -.00000520  00000-0 -14580-4 0  9994,2 50839  53.2179   2.1164 0000851  89.9368 270.1722 15.08840895 80103,6917.878,95.437,540.331,539.154,0.0
50839.0,STARLINK-3320,PAYLOAD,2023-06-10 19:24:33,15.08846114,8.38e-05,53.2181,1.2244,85.4736,274.6352,1.5241e-05,-4.5e-07,0.0,0 STARLINK-3320,1 50839U 22001AN  23161.80872121 -.00000045  00000-0  15241-4 0  9999,2 50839  53.2181   1.2244 0000838  85.4736 274.6352 15.08846114 78857,6917.862,95.437,540.306,539.147,0.0
50839.0,STARLINK-3320,PAYLOAD,2023-06-10 22:35:19,15.08847963,8.79e-05,53.218,0.6295,83.6243,276.4849,3.0114e-05,1.92e-06,0.0,0 STARLINK-3320,1 50839U 22001AN  23161.94119916  .00000192  00000-0  30114-4 0  9998,2 50839  53.2180   0.6295 0000879  83.6243 276.4849 15.08847963 80153,6917.856,95.437,540.329,539.113,0.0
50839.0,STARLINK-3320,PAYLOAD,2023-06-11 22:26:07,15.08840312,9.58e-05,53.218,356.1688,88.2361,271.8741,-8.2238e-06,-4.19e-06,0.0,0 STARLINK-3320,1 50839U 22001AN  23162.93480556 -.00000419  00000-0 -82238-5 0  9998,2 50839  53.2180 356.1688 0000958  88.2361 271.8741 15.08840312 79023,6917.879,95.438,540.407,539.082,0.0
50839.0,STARLINK-3320,PAYLOAD,2023-06-12 06:23:02,15.08841083,9.72e-05,53.2186,354.6797,95.4728,264.6375,9.4946e-06,-1.37e-06,0.0,0 STARLINK-3320,1 50839U 22001AN  23163.26600341 -.00000137  00000-0  94946-5 0  9996,2 50839  53.2186 354.6797 0000972  95.4728 264.6375 15.08841083 79070,6917.877,95.437,540.414,539.07,0.0
